#cP2024  2 19  0  0  0.00000000     577 d+D   IGS20 EXT AIUB
## 2302  86400.00000000   300.00000000 60359 0.0000000000000
+   77   G01G02G03G04G05G06G07G08G09G10G11G12G13G14G15G16G17
+        G18G19G20G21G22G23G24G25G26G27G28G29G30G31G32R01R02
+        R03R04R05R07R08R09R11R12R13R14R15R16R17R18R19R20R21
+        R22E02E03E04E05E07E08E09E10E11E12E13E14E15E18E19E21
+        E24E25E26E27E30E31E33E34E36  0  0  0  0  0  0  0  0
++         6  7  6  8  7  6  7  6  6  6  7  7  8  5  7  7  7
++         7  7  7  7  7  6  6  6  6  6  6  7  5  7  6  9  7
++         8  8  8  8  7  6  5  6  7  5  6  6  7  7  8  9  8
++         7  6  7  7  7  7  7  7  7  7  6  6  6  7  7  7  6
++         6  5  7  6  6  6  7  6  7  0  0  0  0  0  0  0  0
%c M  cc GPS ccc cccc cccc cccc cccc ccccc ccccc ccccc ccccc
%c cc cc ccc ccc cccc cccc cccc cccc ccccc ccccc ccccc ccccc
%f  1.2500000  1.025000000  0.00000000000  0.000000000000000
%f  0.0000000  0.000000000  0.00000000000  0.000000000000000
%i    0    0    0    0      0      0      0      0         0
%i    0    0    0    0      0      0      0      0         0
/* Center for Orbit Determination in Europe (CODE)          
/* Ultra-rapid GRE orbits starting year-day 24050 00 hour   
/* Observed/predicted: 24/24 hours (data used up to 050X)   
/* PCV:IGS20      OL/AL:FES2014b NONE     YN ORB:CoN CLK:BRD
*  2024  2 20 22 25  0.00000000
PG01  17577.568936   4585.215827  19162.137109    170.386134               P   P
PG02  20389.478165  10711.843705  13943.962351   -482.307789               P   P
PG03  16198.067414  -1066.440300  20854.019798    205.918490               P   P
PG04  26320.899322   2051.076132   3524.673313    296.657306               P   P
PG05 -10591.618495 -12046.654651 -21324.252289   -162.557474               P   P
PG06  -3003.908923 -22257.437189  14158.477066    399.109925               P   P
PG07  12818.542315  -8180.013056 -21284.240629    -66.728427               P   P
PG08  23137.220248   6521.881548 -11849.766010   -168.011226               P   P
PG09  23679.880427  -8120.919667  -9043.762633     98.924395               P   P
PG10 -10226.129987  24173.368706   2889.202621      1.088605               P   P
PG11 -11390.416974 -23831.495076   3047.845275   -582.546023               P   P
PG12 -16369.505626   -636.534634  20606.228745   -479.956707               P   P
PG13 -15467.660947 -13298.121506 -17332.406083    627.382778               P   P
PG14  13291.159935 -22853.065166   -978.601416    331.029984               P   P
PG15 -23457.631266  -4536.650866 -12305.139443    129.798938               P   P
PG16   5129.309154  17432.820750 -19544.638606   -358.216914               P   P
PG17  13740.261037 -12957.731959  19160.361805    716.336045               P   P
PG18 -11657.287175   9407.396858 -21908.397049   -559.952163               P   P
PG19   3327.378555 -14691.247624  21664.224611    443.483515               P   P
PG20  -3172.002472 -22625.276669 -13619.382857    386.740092               P   P
PG21  20376.605913  15392.927079   9424.912399    134.202832               P   P
PG22   9075.643058 -24109.620963   7489.239125     27.945094               P   P
PG23 -16047.389468  18776.371812  -9487.176081    160.503255               P   P
PG24 -20495.165195 -12917.002888  10939.043411   -434.969805               P   P
PG25 -17923.189769  11112.896534  15640.091407    489.189102               P   P
PG26  -1280.234969  24055.501906 -10913.083083    188.058446               P   P
PG27  12575.025064  13078.864850 -19818.279372     -5.776221               P   P
PG28   1229.827825  21224.648272  15901.876570   -137.892755               P   P
PG29 -25040.908134   4639.182894  -7774.318997   -606.562840               P   P
PG30   4664.322856 -18129.427820 -18611.298018   -429.932848               P   P
PG31   8310.127812  23762.066824   7588.340173   -227.830586               P   P
PG32  -9447.082167  14660.631457  20173.464143   -612.666280               P   P
PR01  12035.368688   5575.424902  21791.767450     77.684557               P   P
PR02  22844.130261  -5097.307878  10270.282820    -22.492583               P   P
PR03  20612.422085 -13270.166475  -7107.841650     94.874437               P   P
PR04   7353.036266 -13633.507750 -20237.204341    224.275316               P   P
PR05  -9918.862304  -6923.090489 -22437.835842    127.198652               P   P
PR07 -20048.930719  13498.582098   8120.706684     76.360316               P   P
PR08  -6870.387267  13744.714338  20414.053588    -74.552859               P   P
PR09 -11364.937789    118.922280  22850.705806    171.155834               P   P
PR11  -2598.088598  25341.678426   1472.788585     33.686258               P   P
PR12   6456.181140  18316.616262 -16510.826458     36.944539               P   P
PR13  10864.747997   2789.779000 -22929.393949    -44.556930               P   P
PR14   9135.328446 -17576.803843 -16055.643120     26.069582               P   P
PR15   2065.413231 -25422.644549     79.213214     82.034822               P   P
PR16  -6348.516814 -18477.671995  16382.643049     23.445095               P   P
PR17  10427.447485  -5289.292278  22676.266297     62.929500               P   P
PR18  -4709.610569 -14732.940698  20282.091611    128.381300               P   P
PR19 -16142.442314 -17574.882310   9009.834270   -266.563144               P   P
PR20 -20544.580063  -9270.104584 -11886.492133   -108.631860               P   P
PR21 -10259.359504   5277.715178 -22749.364326    -78.582882               P   P
PR22   5151.862889  15594.714298 -19496.126906    109.087715               P   P
PE02 -11533.580057 -13224.605735  23828.598152    105.058865               P   P
PE03 -22751.824931 -10326.764583 -15879.256949    -95.160974               P   P
PE04  29439.744197  -2370.014751  -1962.226956   -332.009641               P   P
PE05  -2881.368612 -16810.222870 -24187.153701   4721.960058               P   P
PE07 -19180.793195  13355.979520  18174.879777   -104.845206               P   P
PE08 -29515.522878   1912.041299   1293.317172   -227.052555               P   P
PE09  19274.471036 -13204.117582 -18164.139100   -343.357168               P   P
PE10  14756.072474  -6469.131168  24829.830173   -603.504410               P   P
PE11   7522.980823 -16515.316318  23374.319262   3234.161821               P   P
PE12  19124.027363   3428.691500  22340.824961   -915.087809               P   P
PE13  -7942.895644  15941.074379 -23637.355225    -20.247067               P   P
PE14 -17260.402069 -14077.789953  16539.541046 999999.999999               P   P
PE15 -19227.614059  -3996.848408 -22132.024219    -86.940528               P   P
PE18   4407.526367  18655.904464 -21943.716248 999999.999999               P   P
PE19  20936.072341  11477.183162  17508.260445   -576.183015               P   P
PE21  -3075.713181  25954.324980 -13899.088521   -580.050737               P   P
PE24  16866.518708 -23831.309986  -4979.647215   -609.505928               P   P
PE25   3412.466605 -26090.220947  13563.269001      1.159040               P   P
PE26   8206.009845  26356.743070 -10685.375517    374.659820               P   P
PE27 -16570.538481  24085.104950   4585.510139   -279.791886               P   P
PE30 -20160.015726   7724.348584  20224.969797    -17.853478               P   P
PE31  20141.449117  -8046.644461 -20148.382121    -16.466849               P   P
PE33  18896.307415  21631.484192   7167.677224      7.900753               P   P
PE34 -19113.306184 -21256.597144  -7682.006340    -95.743258               P   P
PE36  -7768.100582 -26216.204712  11325.130992   -188.749353               P   P
EOF
